{
  "norad_id": 41019,
  "name": "NAVSTAR 75 (USA 265)",
  "history": [
    {
      "epoch": "2026-03-27T12:15:19.111968Z",
      "apogee_km": 20477.575566573818,
      "perigee_km": 19886.26003611288,
      "latitude_deg": 1.713039209182552e-05,
      "longitude_deg": 25.169129089537606,
      "height_km": 20363.912452053122,
      "semi_major_axis_km": 26560.054801343347,
      "eccentricity": 0.01113167,
      "inclination_deg": 56.9083,
      "raan_deg": 33.9579,
      "arg_perigee_deg": 231.5995,
      "mean_anomaly_deg": 127.3861,
      "mean_motion_rev_day": 2.00566923
    }
  ]
}